IRIDIUM 921             
1 24873U 97034E   24315.76020998  .00150900  00000+0  17849-2 0  9998
2 24873  86.3764 214.6358 0007455  71.4317 288.7757 15.60759257497846
IRIDIUM 26              
1 24903U 97043A   24315.95291088  .00001670  00000+0  55962-3 0  9991
2 24903  86.4013 202.1849 0002380  82.9892 277.1576 14.36786937425403
IRIDIUM 22              
1 24907U 97043E   24315.42635024  .00001677  00000+0  57499-3 0  9993
2 24907  86.4016 205.7541 0002134  81.0854 279.0584 14.35639383425381
DUMMY MASS 1            
1 24925U 97048A   24316.22345138  .00001795  00000+0  19934-3 0  9994
2 24925  86.3373 236.0095 0006239 177.4189 182.7069 14.86608259472988
DUMMY MASS 2            
1 24926U 97048B   24316.14946047  .00001855  00000+0  20738-3 0  9993
2 24926  86.3368 237.6118 0006458 192.0630 168.0441 14.86363548472758
IRIDIUM 29              
1 24944U 97051A   24315.03509854  .00002132  00000+0  72614-3 0  9994
2 24944  86.3981 235.7224 0002076  83.2728 276.8706 14.36095076421813
IRIDIUM 33              
1 24946U 97051C   24316.04004650  .00001307  00000+0  45552-3 0  9996
2 24946  86.3898 234.5485 0010086  73.2558 286.9744 14.34641555421471
IRIDIUM 28              
1 24948U 97051E   24316.12607384  .00001830  00000+0  61067-3 0  9990
2 24948  86.3990 232.9054 0002723  82.2642 277.8865 14.37046462422599
